STARLINK-36348          
1 67851U 26034B   26064.74805279  .00227387  00000+0  11207-2 0  9993
2 67851  53.1591 231.1027 0000833  63.9371 296.1737 15.80965124  3315
STARLINK-36276          
1 67852U 26034C   26064.74730144  .00219831  00000+0  10845-2 0  9994
2 67852  53.1592 231.0978 0000751  41.1666 318.9413 15.80965579  3313
STARLINK-36785          
1 67853U 26034D   26064.80977773  .00136455  00000+0  68278-3 0  9997
2 67853  53.1593 230.7756 0001894  46.1051 314.0128 15.80911357  3323
STARLINK-36608          
1 67854U 26034E   26064.80902295  .00135540  00000+0  67792-3 0  9999
2 67854  53.1595 230.7707 0000667  55.1015 305.0070 15.80924466  3319
STARLINK-36838          
1 67855U 26034F   26064.80827439  .00165800  00000+0  82553-3 0  9990
2 67855  53.1594 230.7654 0001192  37.7557 322.3549 15.80925589  3322
STARLINK-36843          
1 67856U 26034G   26064.80677531  .00148327  00000+0  74048-3 0  9992
2 67856  53.1593 230.7557 0001176  50.6879 309.4248 15.80923260  3323
STARLINK-36828          
1 67857U 26034H   26064.80752537  .00197138  00000+0  97667-3 0  9999
2 67857  53.1591 230.7608 0002068  29.0804 331.0333 15.80939599  3326
STARLINK-36837          
1 67858U 26034J   26064.80602436  .00158752  00000+0  79115-3 0  9999
2 67858  53.1595 230.7497 0001112  54.1342 305.9784 15.80927956  3326
STARLINK-36393          
1 67859U 26034K   26064.80527286  .00143915  00000+0  71878-3 0  9992
2 67859  53.1595 230.7445 0000800  80.4461 279.6652 15.80927892  3327
STARLINK-35873          
1 67860U 26034L   26064.80452192  .00174088  00000+0  86510-3 0  9991
2 67860  53.1594 230.7394 0000949  41.9266 318.1830 15.80942848  3358
STARLINK-36325          
1 67861U 26034M   26064.80377406  .00123479  00000+0  61914-3 0  9995
2 67861  53.1597 230.7342 0001371  39.2945 320.8177 15.80911152  3324
STARLINK-36332          
1 67862U 26034N   26064.73980245  .00231592  00000+0  11410-2 0  9990
2 67862  53.1592 231.0463 0001093  39.0156 321.0946 15.80962347  3319
STARLINK-36835          
1 67863U 26034P   26064.80227212  .00210738  00000+0  10416-2 0  9991
2 67863  53.1597 230.7233 0001161  58.3348 301.7788 15.80952869  3327
STARLINK-36831          
1 67864U 26034Q   26064.80152471  .00165559  00000+0  82477-3 0  9993
2 67864  53.1591 230.7186 0003746  14.5220 345.5910 15.80908590  3328
STARLINK-36738          
1 67865U 26034R   26064.80077346  .00105282  00000+0  52971-3 0  9994
2 67865  53.1596 230.7133 0000718  91.4938 268.6167 15.80904076  3326
STARLINK-36780          
1 67866U 26034S   26064.80002193  .00148137  00000+0  73941-3 0  9999
2 67866  53.1598 230.7072 0001168  37.1436 322.9667 15.80927599  3325
STARLINK-36761          
1 67867U 26034T   26064.83334490  .00090439  00000+0  45805-3 0  9990
2 67867  53.1599 230.5327 0001059  61.7078 132.4522 15.80821095  3241
